ONEWEB-0379             
1 49305U 21090AC  25198.42407539  .00000273  00000+0  70137-3 0  9994
2 49305  87.9049 356.3113 0001923  97.1903 262.9445 13.14503865183589
ONEWEB-0380             
1 49306U 21090AD  25198.45398878 -.00000014  00000+0 -66416-4 0  9994
2 49306  87.9216  11.5167 0001661  92.2930 267.8393 13.19725781182279
ONEWEB-0381             
1 49307U 21090AE  25198.38904665  .00000026  00000+0  32690-4 0  9992
2 49307  87.9285 341.1336 0001684 103.8216 256.3104 13.20771850185633
ONEWEB-0382             
1 49308U 21090AF  25198.45218705  .00000021  00000+0  19238-4 0  9992
2 49308  87.9277 341.1144 0001828 107.7444 252.3889 13.20770339185635
ONEWEB-0383             
1 49309U 21090AG  25198.41773002  .00000174  00000+0  43568-3 0  9996
2 49309  87.9046 356.2922 0001951  99.7526 260.3824 13.14503370183615
ONEWEB-0384             
1 49310U 21090AH  25198.44794625  .00000066  00000+0  12978-3 0  9996
2 49310  87.9287 341.1331 0001975 114.2353 245.8986 13.20786604185640
ONEWEB-0385             
1 49311U 21090AJ  25198.44428664  .00000081  00000+0  16820-3 0  9991
2 49311  87.9273 341.1329 0001837 101.4341 258.6999 13.20771066185614
ONEWEB-0386             
1 49312U 21090AK  25198.38589697  .00000017  00000+0  11071-4 0  9992
2 49312  87.9276 341.1147 0001907 105.9020 254.2324 13.20772275185625
